{"type": "FeatureCollection", "features": [{"type": "Feature", "geometry": {"type": "LineString", "coordinates": [[88.3637533, 22.6540325], [88.3805962, 22.6530765], [88.3941343, 22.6398418], [88.3928973, 22.6211141], [88.3863913, 22.6059241], [88.3724974, 22.601335], [88.3651996, 22.595881], [88.3629415, 22.5871445], [88.3613271, 22.5809206], [88.3587427, 22.5724857], [88.3541581, 22.5670118], [88.3512099, 22.5636143], [88.3501171, 22.5551591], [88.3487883, 22.5494672], [88.3473493, 22.5414899], [88.3459269, 22.5331821], [88.3464729, 22.5241535], [88.3458448, 22.5168752], [88.3454936, 22.5072216], [88.3450879, 22.4947692], [88.3460002, 22.4809928], [88.36083, 22.47341], [88.37, 22.4694], [88.3804604, 22.4642505], [88.3915408, 22.4659847], [88.397961, 22.4721697]]}, "properties": {"id": "Metro Blue Line||metro", "code": "Metro Blue Line", "kind": "metro", "scope": "metro", "towards": "", "directional": false, "stop_count": 26, "geocoded_stops": 26, "coverage": 1.0, "geom_source": "osm_verified", "stops": [{"name": "Dakshineswar", "sequence": 1, "lat": 22.6540325, "lng": 88.3637533}, {"name": "Baranagar", "sequence": 2, "lat": 22.6530765, "lng": 88.3805962}, {"name": "Noapara", "sequence": 3, "lat": 22.6398418, "lng": 88.3941343}, {"name": "Dum Dum", "sequence": 4, "lat": 22.6211141, "lng": 88.3928973}, {"name": "Belgachia", "sequence": 5, "lat": 22.6059241, "lng": 88.3863913}, {"name": "Shyambazar", "sequence": 6, "lat": 22.601335, "lng": 88.3724974}, {"name": "Shobhabazar Sutanuti", "sequence": 7, "lat": 22.595881, "lng": 88.3651996}, {"name": "Girish Park", "sequence": 8, "lat": 22.5871445, "lng": 88.3629415}, {"name": "Mahatma Gandhi Road", "sequence": 9, "lat": 22.5809206, "lng": 88.3613271}, {"name": "Central", "sequence": 10, "lat": 22.5724857, "lng": 88.3587427}, {"name": "Chandni Chowk", "sequence": 11, "lat": 22.5670118, "lng": 88.3541581}, {"name": "Esplanade", "sequence": 12, "lat": 22.5636143, "lng": 88.3512099}, {"name": "Park Street", "sequence": 13, "lat": 22.5551591, "lng": 88.3501171}, {"name": "Maidan", "sequence": 14, "lat": 22.5494672, "lng": 88.3487883}, {"name": "Rabindra Sadan", "sequence": 15, "lat": 22.5414899, "lng": 88.3473493}, {"name": "Netaji Bhavan", "sequence": 16, "lat": 22.5331821, "lng": 88.3459269}, {"name": "Jatin Das Park", "sequence": 17, "lat": 22.5241535, "lng": 88.3464729}, {"name": "Kalighat", "sequence": 18, "lat": 22.5168752, "lng": 88.3458448}, {"name": "Rabindra Sarobar", "sequence": 19, "lat": 22.5072216, "lng": 88.3454936}, {"name": "Mahanayak Uttam Kumar", "sequence": 20, "lat": 22.4947692, "lng": 88.3450879}, {"name": "Netaji", "sequence": 21, "lat": 22.4809928, "lng": 88.3460002}, {"name": "Masterda Surya Sen", "sequence": 22, "lat": 22.47341, "lng": 88.36083}, {"name": "Gitanjali", "sequence": 23, "lat": 22.4694, "lng": 88.37}, {"name": "Kavi Nazrul", "sequence": 24, "lat": 22.4642505, "lng": 88.3804604}, {"name": "Shahid Khudiram", "sequence": 25, "lat": 22.4659847, "lng": 88.3915408}, {"name": "Kavi Subhash", "sequence": 26, "lat": 22.4721697, "lng": 88.397961}], "origin": "Dakshineswar", "destination": "Kavi Subhash"}}, {"type": "Feature", "geometry": {"type": "LineString", "coordinates": [[88.3339983, 22.5838585], [88.3403452, 22.5833648], [88.3505275, 22.5720777], [88.3502752, 22.5641292], [88.3697815, 22.5666059], [88.3902408, 22.5721268], [88.4030891, 22.5731115], [88.4012962, 22.5800666], [88.4078908, 22.5870993], [88.4156247, 22.5904737], [88.4215312, 22.58638], [88.4290872, 22.5809434]]}, "properties": {"id": "Metro Green Line||metro", "code": "Metro Green Line", "kind": "metro", "scope": "metro", "towards": "", "directional": false, "stop_count": 12, "geocoded_stops": 12, "coverage": 1.0, "geom_source": "osm_verified", "stops": [{"name": "Howrah Maidan", "sequence": 1, "lat": 22.5838585, "lng": 88.3339983}, {"name": "Howrah", "sequence": 2, "lat": 22.5833648, "lng": 88.3403452}, {"name": "Mahakaran", "sequence": 3, "lat": 22.5720777, "lng": 88.3505275}, {"name": "Esplanade", "sequence": 4, "lat": 22.5641292, "lng": 88.3502752}, {"name": "Sealdah", "sequence": 5, "lat": 22.5666059, "lng": 88.3697815}, {"name": "Phoolbagan", "sequence": 6, "lat": 22.5721268, "lng": 88.3902408}, {"name": "Salt Lake Stadium", "sequence": 7, "lat": 22.5731115, "lng": 88.4030891}, {"name": "Bengal Chemical", "sequence": 8, "lat": 22.5800666, "lng": 88.4012962}, {"name": "City Centre", "sequence": 9, "lat": 22.5870993, "lng": 88.4078908}, {"name": "Central Park", "sequence": 10, "lat": 22.5904737, "lng": 88.4156247}, {"name": "Karunamoyee", "sequence": 11, "lat": 22.58638, "lng": 88.4215312}, {"name": "Salt Lake Sector V", "sequence": 12, "lat": 22.5809434, "lng": 88.4290872}], "origin": "Howrah Maidan", "destination": "Salt Lake Sector V"}}, {"type": "Feature", "geometry": {"type": "LineString", "coordinates": [[88.3941343, 22.6398418], [88.4121618, 22.6375936], [88.4297701, 22.6392646], [88.4373029, 22.6473058]]}, "properties": {"id": "Metro Yellow Line||metro", "code": "Metro Yellow Line", "kind": "metro", "scope": "metro", "towards": "", "directional": false, "stop_count": 4, "geocoded_stops": 4, "coverage": 1.0, "geom_source": "osm_verified", "stops": [{"name": "Noapara", "sequence": 1, "lat": 22.6398418, "lng": 88.3941343}, {"name": "Dum Dum Cantonment", "sequence": 2, "lat": 22.6375936, "lng": 88.4121618}, {"name": "Jessore Road", "sequence": 3, "lat": 22.6392646, "lng": 88.4297701}, {"name": "Jai Hind", "sequence": 4, "lat": 22.6473058, "lng": 88.4373029}], "origin": "Noapara", "destination": "Jai Hind"}}, {"type": "Feature", "geometry": {"type": "LineString", "coordinates": [[88.3018236, 22.452347], [88.3075322, 22.4643677], [88.3099593, 22.4748533], [88.3133794, 22.4873548], [88.3173872, 22.4987585], [88.3203842, 22.5076863], [88.3236555, 22.5191466]]}, "properties": {"id": "Metro Purple Line||metro", "code": "Metro Purple Line", "kind": "metro", "scope": "metro", "towards": "", "directional": false, "stop_count": 7, "geocoded_stops": 7, "coverage": 1.0, "geom_source": "osm_verified", "stops": [{"name": "Joka", "sequence": 1, "lat": 22.452347, "lng": 88.3018236}, {"name": "Thakurpukur", "sequence": 2, "lat": 22.4643677, "lng": 88.3075322}, {"name": "Sakher Bazar", "sequence": 3, "lat": 22.4748533, "lng": 88.3099593}, {"name": "Behala Chowrasta", "sequence": 4, "lat": 22.4873548, "lng": 88.3133794}, {"name": "Behala Bazar", "sequence": 5, "lat": 22.4987585, "lng": 88.3173872}, {"name": "Taratala", "sequence": 6, "lat": 22.5076863, "lng": 88.3203842}, {"name": "Majerhat", "sequence": 7, "lat": 22.5191466, "lng": 88.3236555}], "origin": "Joka", "destination": "Majerhat"}}, {"type": "Feature", "geometry": {"type": "LineString", "coordinates": [[88.3980989, 22.4711093], [88.3926447, 22.4846775], [88.398449, 22.4956263], [88.4009957, 22.5053017], [88.4014276, 22.5148514], [88.3962331, 22.5246847], [88.3964191, 22.5329995], [88.3992762, 22.5438072], [88.4039852, 22.5507084]]}, "properties": {"id": "Metro Orange Line||metro", "code": "Metro Orange Line", "kind": "metro", "scope": "metro", "towards": "", "directional": false, "stop_count": 9, "geocoded_stops": 9, "coverage": 1.0, "geom_source": "osm_verified", "stops": [{"name": "Kavi Subhash", "sequence": 1, "lat": 22.4711093, "lng": 88.3980989}, {"name": "Satyajit Ray", "sequence": 2, "lat": 22.4846775, "lng": 88.3926447}, {"name": "Jyotirindra Nandi", "sequence": 3, "lat": 22.4956263, "lng": 88.398449}, {"name": "Kavi Sukanta", "sequence": 4, "lat": 22.5053017, "lng": 88.4009957}, {"name": "Hemanta Mukhopadhyay", "sequence": 5, "lat": 22.5148514, "lng": 88.4014276}, {"name": "VIP Bazar", "sequence": 6, "lat": 22.5246847, "lng": 88.3962331}, {"name": "Ritwik Ghatak", "sequence": 7, "lat": 22.5329995, "lng": 88.3964191}, {"name": "Barun Sengupta", "sequence": 8, "lat": 22.5438072, "lng": 88.3992762}, {"name": "Beleghata", "sequence": 9, "lat": 22.5507084, "lng": 88.4039852}], "origin": "Kavi Subhash", "destination": "Beleghata"}}]}